{"fetched_at":"2026-03-29T02:12:04Z","count":15717,"tles":[{"name":"APSTAR-6E","line1":"1 55239U 23005A   26084.60738918 -.00000331  00000+0  00000+0 0  9992","line2":"2 55239   0.0189 217.0922 0000876 107.3207 211.2565  1.00267101 17859","category":"Other"}]}